[{"OBJECT_NAME":"ONEWEB-0403","OBJECT_ID":"2021-132Q","EPOCH":"2026-02-04T06:11:21.626880","MEAN_MOTION":13.18686627,"ECCENTRICITY":0.00019564,"INCLINATION":87.9215,"RA_OF_ASC_NODE":1.8414,"ARG_OF_PERICENTER":81.4265,"MEAN_ANOMALY":278.7089,"EPHEMERIS_TYPE":0,"CLASSIFICATION_TYPE":"U","NORAD_CAT_ID":50483,"ELEMENT_SET_NO":999,"REV_AT_EPOCH":20407,"BSTAR":-0.00018578373,"MEAN_MOTION_DOT":-6.0e-7,"MEAN_MOTION_DDOT":0},{"OBJECT_NAME":"ONEWEB-0404","OBJECT_ID":"2021-132R","EPOCH":"2026-02-04T00:59:06.212832","MEAN_MOTION":13.11414205,"ECCENTRICITY":0.00021726,"INCLINATION":87.8815,"RA_OF_ASC_NODE":47.5644,"ARG_OF_PERICENTER":87.9077,"MEAN_ANOMALY":272.23,"EPHEMERIS_TYPE":0,"CLASSIFICATION_TYPE":"U","NORAD_CAT_ID":50484,"ELEMENT_SET_NO":999,"REV_AT_EPOCH":19824,"BSTAR":-0.00033304068,"MEAN_MOTION_DOT":-1.05e-6,"MEAN_MOTION_DDOT":0},{"OBJECT_NAME":"ONEWEB-0405","OBJECT_ID":"2021-132S","EPOCH":"2026-02-04T06:32:43.808928","MEAN_MOTION":13.18687658,"ECCENTRICITY":0.00017947,"INCLINATION":87.9218,"RA_OF_ASC_NODE":1.8221,"ARG_OF_PERICENTER":74.062,"MEAN_ANOMALY":286.071,"EPHEMERIS_TYPE":0,"CLASSIFICATION_TYPE":"U","NORAD_CAT_ID":50485,"ELEMENT_SET_NO":999,"REV_AT_EPOCH":20447,"BSTAR":0.00027708051,"MEAN_MOTION_DOT":1.22e-6,"MEAN_MOTION_DDOT":0},{"OBJECT_NAME":"ONEWEB-0406","OBJECT_ID":"2021-132T","EPOCH":"2026-02-04T06:18:29.129760","MEAN_MOTION":13.18682002,"ECCENTRICITY":0.000229,"INCLINATION":87.9219,"RA_OF_ASC_NODE":1.8499,"ARG_OF_PERICENTER":78.8078,"MEAN_ANOMALY":281.3311,"EPHEMERIS_TYPE":0,"CLASSIFICATION_TYPE":"U","NORAD_CAT_ID":50486,"ELEMENT_SET_NO":999,"REV_AT_EPOCH":20410,"BSTAR":-0.00025582822,"MEAN_MOTION_DOT":-8.8e-7,"MEAN_MOTION_DDOT":0},{"OBJECT_NAME":"ONEWEB-0407","OBJECT_ID":"2021-132U","EPOCH":"2026-02-04T04:19:43.017600","MEAN_MOTION":13.18687549,"ECCENTRICITY":0.00016717,"INCLINATION":87.922,"RA_OF_ASC_NODE":1.8492,"ARG_OF_PERICENTER":82.0886,"MEAN_ANOMALY":278.0436,"EPHEMERIS_TYPE":0,"CLASSIFICATION_TYPE":"U","NORAD_CAT_ID":50487,"ELEMENT_SET_NO":999,"REV_AT_EPOCH":20403,"BSTAR":0.00018789378,"MEAN_MOTION_DOT":8.7e-7,"MEAN_MOTION_DDOT":0},{"OBJECT_NAME":"ONEWEB-0409","OBJECT_ID":"2021-132V","EPOCH":"2026-02-04T00:56:40.052544","MEAN_MOTION":13.11414555,"ECCENTRICITY":0.00022099,"INCLINATION":87.8832,"RA_OF_ASC_NODE":47.5425,"ARG_OF_PERICENTER":92.8957,"MEAN_ANOMALY":267.2424,"EPHEMERIS_TYPE":0,"CLASSIFICATION_TYPE":"U","NORAD_CAT_ID":50488,"ELEMENT_SET_NO":999,"REV_AT_EPOCH":19813,"BSTAR":-9.0105941e-5,"MEAN_MOTION_DOT":-1.9e-7,"MEAN_MOTION_DDOT":0},{"OBJECT_NAME":"ONEWEB-0412","OBJECT_ID":"2021-132W","EPOCH":"2026-02-04T07:41:36.829824","MEAN_MOTION":13.18686902,"ECCENTRICITY":0.00016701,"INCLINATION":87.9219,"RA_OF_ASC_NODE":1.835,"ARG_OF_PERICENTER":73.3348,"MEAN_ANOMALY":286.7967,"EPHEMERIS_TYPE":0,"CLASSIFICATION_TYPE":"U","NORAD_CAT_ID":50489,"ELEMENT_SET_NO":999,"REV_AT_EPOCH":20414,"BSTAR":0.00017422374,"MEAN_MOTION_DOT":8.2e-7,"MEAN_MOTION_DDOT":0},{"OBJECT_NAME":"ONEWEB-0413","OBJECT_ID":"2021-132X","EPOCH":"2026-02-03T15:25:21.578304","MEAN_MOTION":13.18686428,"ECCENTRICITY":0.00015278,"INCLINATION":87.9206,"RA_OF_ASC_NODE":1.9773,"ARG_OF_PERICENTER":78.0632,"MEAN_ANOMALY":282.0671,"EPHEMERIS_TYPE":0,"CLASSIFICATION_TYPE":"U","NORAD_CAT_ID":50490,"ELEMENT_SET_NO":999,"REV_AT_EPOCH":20399,"BSTAR":-0.00058006657,"MEAN_MOTION_DOT":-2.16e-6,"MEAN_MOTION_DDOT":0},{"OBJECT_NAME":"ONEWEB-0414","OBJECT_ID":"2021-132Y","EPOCH":"2026-02-04T07:27:22.389984","MEAN_MOTION":13.18688897,"ECCENTRICITY":0.00019147,"INCLINATION":87.9226,"RA_OF_ASC_NODE":1.813,"ARG_OF_PERICENTER":77.7201,"MEAN_ANOMALY":282.4145,"EPHEMERIS_TYPE":0,"CLASSIFICATION_TYPE":"U","NORAD_CAT_ID":50491,"ELEMENT_SET_NO":999,"REV_AT_EPOCH":20411,"BSTAR":0.0011333242,"MEAN_MOTION_DOT":4.6e-6,"MEAN_MOTION_DDOT":0},{"OBJECT_NAME":"ONEWEB-0417","OBJECT_ID":"2021-132Z","EPOCH":"2026-02-04T04:00:42.169536","MEAN_MOTION":13.18687341,"ECCENTRICITY":0.00020555,"INCLINATION":87.9207,"RA_OF_ASC_NODE":1.8723,"ARG_OF_PERICENTER":81.8543,"MEAN_ANOMALY":278.2822,"EPHEMERIS_TYPE":0,"CLASSIFICATION_TYPE":"U","NORAD_CAT_ID":50492,"ELEMENT_SET_NO":999,"REV_AT_EPOCH":20407,"BSTAR":4.4013591e-5,"MEAN_MOTION_DOT":3.0e-7,"MEAN_MOTION_DDOT":0},{"OBJECT_NAME":"ONEWEB-0418","OBJECT_ID":"2021-132AA","EPOCH":"2026-02-04T04:14:46.485888","MEAN_MOTION":13.18686954,"ECCENTRICITY":0.0002343,"INCLINATION":87.9218,"RA_OF_ASC_NODE":1.8573,"ARG_OF_PERICENTER":81.8937,"MEAN_ANOMALY":278.2461,"EPHEMERIS_TYPE":0,"CLASSIFICATION_TYPE":"U","NORAD_CAT_ID":50493,"ELEMENT_SET_NO":999,"REV_AT_EPOCH":20413,"BSTAR":0.00025236165,"MEAN_MOTION_DOT":1.12e-6,"MEAN_MOTION_DDOT":0},{"OBJECT_NAME":"ONEWEB-0419","OBJECT_ID":"2021-132AB","EPOCH":"2026-02-04T04:41:05.949600","MEAN_MOTION":13.18687354,"ECCENTRICITY":0.00021014,"INCLINATION":87.9216,"RA_OF_ASC_NODE":1.8537,"ARG_OF_PERICENTER":88.9089,"MEAN_ANOMALY":271.2284,"EPHEMERIS_TYPE":0,"CLASSIFICATION_TYPE":"U","NORAD_CAT_ID":50494,"ELEMENT_SET_NO":999,"REV_AT_EPOCH":20405,"BSTAR":0.00015189242,"MEAN_MOTION_DOT":7.3e-7,"MEAN_MOTION_DDOT":0},{"OBJECT_NAME":"ONEWEB-0420","OBJECT_ID":"2021-132AC","EPOCH":"2026-02-04T07:29:44.109312","MEAN_MOTION":13.18687894,"ECCENTRICITY":0.00016586,"INCLINATION":87.9217,"RA_OF_ASC_NODE":1.8435,"ARG_OF_PERICENTER":83.5871,"MEAN_ANOMALY":276.545,"EPHEMERIS_TYPE":0,"CLASSIFICATION_TYPE":"U","NORAD_CAT_ID":50495,"ELEMENT_SET_NO":999,"REV_AT_EPOCH":20406,"BSTAR":0.00013734357,"MEAN_MOTION_DOT":6.7e-7,"MEAN_MOTION_DDOT":0},{"OBJECT_NAME":"ONEWEB-0421","OBJECT_ID":"2021-132AD","EPOCH":"2026-02-04T07:20:14.406720","MEAN_MOTION":13.18687693,"ECCENTRICITY":0.00018394,"INCLINATION":87.9216,"RA_OF_ASC_NODE":1.8365,"ARG_OF_PERICENTER":73.2937,"MEAN_ANOMALY":286.8397,"EPHEMERIS_TYPE":0,"CLASSIFICATION_TYPE":"U","NORAD_CAT_ID":50496,"ELEMENT_SET_NO":999,"REV_AT_EPOCH":20410,"BSTAR":0.00018053548,"MEAN_MOTION_DOT":8.4e-7,"MEAN_MOTION_DDOT":0},{"OBJECT_NAME":"ONEWEB-0424","OBJECT_ID":"2021-132AE","EPOCH":"2026-02-04T06:23:14.236800","MEAN_MOTION":13.18687186,"ECCENTRICITY":0.00020324,"INCLINATION":87.9217,"RA_OF_ASC_NODE":1.8393,"ARG_OF_PERICENTER":91.7578,"MEAN_ANOMALY":268.3787,"EPHEMERIS_TYPE":0,"CLASSIFICATION_TYPE":"U","NORAD_CAT_ID":50497,"ELEMENT_SET_NO":999,"REV_AT_EPOCH":20412,"BSTAR":0.00023657387,"MEAN_MOTION_DOT":1.06e-6,"MEAN_MOTION_DDOT":0},{"OBJECT_NAME":"ONEWEB-0426","OBJECT_ID":"2021-132AF","EPOCH":"2026-02-04T07:15:29.432736","MEAN_MOTION":13.1868757,"ECCENTRICITY":0.00022452,"INCLINATION":87.9217,"RA_OF_ASC_NODE":1.8243,"ARG_OF_PERICENTER":67.152,"MEAN_ANOMALY":292.9849,"EPHEMERIS_TYPE":0,"CLASSIFICATION_TYPE":"U","NORAD_CAT_ID":50498,"ELEMENT_SET_NO":999,"REV_AT_EPOCH":20407,"BSTAR":3.7691421e-5,"MEAN_MOTION_DOT":2.8e-7,"MEAN_MOTION_DDOT":0},{"OBJECT_NAME":"ONEWEB-0427","OBJECT_ID":"2021-132AG","EPOCH":"2026-02-04T06:20:50.998560","MEAN_MOTION":13.1868305,"ECCENTRICITY":0.00021144,"INCLINATION":87.9215,"RA_OF_ASC_NODE":1.818,"ARG_OF_PERICENTER":83.6574,"MEAN_ANOMALY":276.4799,"EPHEMERIS_TYPE":0,"CLASSIFICATION_TYPE":"U","NORAD_CAT_ID":50499,"ELEMENT_SET_NO":999,"REV_AT_EPOCH":20409,"BSTAR":-0.00028208553,"MEAN_MOTION_DOT":-9.8e-7,"MEAN_MOTION_DDOT":0},{"OBJECT_NAME":"ONEWEB-0429","OBJECT_ID":"2021-132AH","EPOCH":"2026-02-03T15:27:44.632512","MEAN_MOTION":13.18687527,"ECCENTRICITY":0.00016972,"INCLINATION":87.9215,"RA_OF_ASC_NODE":1.974,"ARG_OF_PERICENTER":85.0204,"MEAN_ANOMALY":275.1122,"EPHEMERIS_TYPE":0,"CLASSIFICATION_TYPE":"U","NORAD_CAT_ID":50500,"ELEMENT_SET_NO":999,"REV_AT_EPOCH":20398,"BSTAR":4.4364642e-5,"MEAN_MOTION_DOT":3.0e-7,"MEAN_MOTION_DDOT":0},{"OBJECT_NAME":"ONEWEB-0430","OBJECT_ID":"2021-132AJ","EPOCH":"2026-02-04T07:34:30.087264","MEAN_MOTION":13.18686938,"ECCENTRICITY":0.00017792,"INCLINATION":87.9216,"RA_OF_ASC_NODE":1.8374,"ARG_OF_PERICENTER":91.2344,"MEAN_ANOMALY":268.8992,"EPHEMERIS_TYPE":0,"CLASSIFICATION_TYPE":"U","NORAD_CAT_ID":50501,"ELEMENT_SET_NO":999,"REV_AT_EPOCH":20411,"BSTAR":0.00025976477,"MEAN_MOTION_DOT":1.15e-6,"MEAN_MOTION_DDOT":0},{"OBJECT_NAME":"ONEWEB-0432","OBJECT_ID":"2021-132AK","EPOCH":"2026-02-04T06:31:37.209216","MEAN_MOTION":13.18679012,"ECCENTRICITY":0.0002705,"INCLINATION":87.9215,"RA_OF_ASC_NODE":1.8151,"ARG_OF_PERICENTER":91.9227,"MEAN_ANOMALY":268.2215,"EPHEMERIS_TYPE":0,"CLASSIFICATION_TYPE":"U","NORAD_CAT_ID":50502,"ELEMENT_SET_NO":999,"REV_AT_EPOCH":20406,"BSTAR":-0.00058067937,"MEAN_MOTION_DOT":-2.16e-6,"MEAN_MOTION_DDOT":0},{"OBJECT_NAME":"ONEWEB-0440","OBJECT_ID":"2021-132AL","EPOCH":"2026-02-04T06:13:43.850784","MEAN_MOTION":13.18686843,"ECCENTRICITY":0.00015321,"INCLINATION":87.9216,"RA_OF_ASC_NODE":1.838,"ARG_OF_PERICENTER":72.7369,"MEAN_ANOMALY":287.3931,"EPHEMERIS_TYPE":0,"CLASSIFICATION_TYPE":"U","NORAD_CAT_ID":50503,"ELEMENT_SET_NO":999,"REV_AT_EPOCH":20405,"BSTAR":-0.00027234375,"MEAN_MOTION_DOT":-9.4e-7,"MEAN_MOTION_DDOT":0},{"OBJECT_NAME":"ONEWEB-0450","OBJECT_ID":"2021-132AM","EPOCH":"2026-02-03T10:02:31.898400","MEAN_MOTION":13.18687777,"ECCENTRICITY":0.00015948,"INCLINATION":87.9206,"RA_OF_ASC_NODE":2.0239,"ARG_OF_PERICENTER":88.5116,"MEAN_ANOMALY":271.6199,"EPHEMERIS_TYPE":0,"CLASSIFICATION_TYPE":"U","NORAD_CAT_ID":50504,"ELEMENT_SET_NO":999,"REV_AT_EPOCH":20397,"BSTAR":-6.4156028e-5,"MEAN_MOTION_DOT":-1.2e-7,"MEAN_MOTION_DDOT":0},{"OBJECT_NAME":"ONEWEB-0410","OBJECT_ID":"2022-012A","EPOCH":"2026-02-04T06:04:24.410784","MEAN_MOTION":13.17650463,"ECCENTRICITY":0.00030787,"INCLINATION":87.9104,"RA_OF_ASC_NODE":32.2564,"ARG_OF_PERICENTER":73.0818,"MEAN_ANOMALY":287.0651,"EPHEMERIS_TYPE":0,"CLASSIFICATION_TYPE":"U","NORAD_CAT_ID":51622,"ELEMENT_SET_NO":999,"REV_AT_EPOCH":19619,"BSTAR":-0.00010079805,"MEAN_MOTION_DOT":-2.6e-7,"MEAN_MOTION_DDOT":0}]
